IRIDIUM 921             
1 24873U 97034E   24354.10892764  .00148265  00000+0  11625-2 0  9994
2 24873  86.3686 194.8526 0001495  54.9110 305.2301 15.71117350503842
IRIDIUM 26              
1 24903U 97043A   24354.25610371  .00000733  00000+0  24147-3 0  9997
2 24903  86.3978 186.1271 0001898  82.6294 277.5119 14.36854937430902
IRIDIUM 22              
1 24907U 97043E   24354.24812531  .00000651  00000+0  21880-3 0  9992
2 24907  86.3983 189.5113 0001973  89.2885 270.8538 14.35700137430954
DUMMY MASS 1            
1 24925U 97048A   24354.11901611  .00000809  00000+0  87876-4 0  9994
2 24925  86.3361 218.5079 0008960  71.0423 289.1772 14.86683393478379
DUMMY MASS 2            
1 24926U 97048B   24354.11859943  .00000809  00000+0  88356-4 0  9999
2 24926  86.3360 220.0823 0009873  79.2879 280.9457 14.86437950478154
IRIDIUM 29              
1 24944U 97051A   24354.12308856  .00000759  00000+0  25397-3 0  9995
2 24944  86.3972 219.3451 0002151  89.0598 271.0846 14.36167155427429
IRIDIUM 33              
1 24946U 97051C   24354.19144758  .00000444  00000+0  14990-3 0  9991
2 24946  86.3888 218.5647 0006465 317.2979  42.7713 14.34689565426939
IRIDIUM 28              
1 24948U 97051E   24354.14383501  .00000701  00000+0  22961-3 0  9992
2 24948  86.3979 216.9556 0001744  74.0924 286.0466 14.37113067427982
